UNKNOWN                 
1 81865U          25311.58820378  .00002607  00000+0  21475-2 0  9996
2 81865  82.8062  55.8189 0063654 105.9821 271.0465 13.87859075603672
UNKNOWN                 
1 81893U          25307.40171453  .00001252  00000+0  13256-2 0  9999
2 81893 100.0435 288.5591 0021378  10.9986 349.1626 13.76559948598668
UNKNOWN                 
1 81899U          25309.74034759  .00001818  00000+0  42963-2 0  9996
2 81899 102.4167  44.8861 0177477 290.1821  68.0277 13.20028712574108
UNKNOWN                 
1 81921U          25299.33746147  .00001301  00000+0  54748-3 0  9998
2 81921  65.7062 160.7212 0849516 134.9826 232.3358 13.14903195 19556
UNKNOWN                 
1 81946U          25310.76644669  .00000181  00000+0  77048-3 0  9995
2 81946  66.4186 221.8344 0669756   8.6539  20.0083 12.42560794543415
UNKNOWN                 
1 81947U          25307.18324589  .00004264  00000+0  41018-3 0  9998
2 81947  66.0739 278.4867 0382374 167.3884 193.7131 14.52105227625274
UNKNOWN                 
1 81964U          25312.49477165  .00000327  00000+0  29628-3 0  9995
2 81964  66.5856 343.8275 0029409 115.3674 245.0456 13.95762541609261
UNKNOWN                 
1 81969U          25312.56483104  .00015590  00000+0  95767-3 0  9993
2 81969  86.6862 168.2484 0003670 334.9164  25.1895 15.09979744435018
UNKNOWN                 
1 81995U          25310.37365491  .00012482  00000+0  23554-2 0  9998
2 81995  65.7468 219.1071 0520771 314.9067  41.0828 14.03195864599123
UNKNOWN                 
1 82043U          25311.86233392  .00007288  00000+0  20160-2 0  9990
2 82043  97.9271 103.4929 0232745 188.1841 171.5521 14.32174848568852
UNKNOWN                 
1 82051U          25310.03382016  .00005881  00000+0  19711-2 0  9992
2 82051  98.7501  35.0029 0091825   8.7222 351.5532 14.35293581567141
UNKNOWN                 
1 82073U          25311.49178136  .00003425  00000+0  87907-3 0  9998
2 82073  97.7558  30.9629 0208567  35.6432 325.8482 14.38581770570056
