CCSDS_OMM_VERS = 2.0
CREATION_DATE  = 
ORIGINATOR     = 

OBJECT_NAME    = UNKNOWN
OBJECT_ID      = 
CENTER_NAME    = EARTH
REF_FRAME      = TEME
TIME_SYSTEM    = UTC
MEAN_ELEMENT_THEORY = SGP/SGP4

EPOCH          = 2025-11-07T14:07:00.806592
MEAN_MOTION    = 13.87859075
ECCENTRICITY   = .0063654
INCLINATION    = 82.8062
RA_OF_ASC_NODE = 55.8189
ARG_OF_PERICENTER = 105.9821
MEAN_ANOMALY   = 271.0465

EPHEMERIS_TYPE = 0
CLASSIFICATION_TYPE = U
NORAD_CAT_ID   = 81865
ELEMENT_SET_NO = 999
REV_AT_EPOCH   = 60367
BSTAR          = .21475E-2
MEAN_MOTION_DOT = .2607E-4
MEAN_MOTION_DDOT = 0

CCSDS_OMM_VERS = 2.0
CREATION_DATE  = 
ORIGINATOR     = 

OBJECT_NAME    = UNKNOWN
OBJECT_ID      = 
CENTER_NAME    = EARTH
REF_FRAME      = TEME
TIME_SYSTEM    = UTC
MEAN_ELEMENT_THEORY = SGP/SGP4

EPOCH          = 2025-11-03T09:38:28.135392
MEAN_MOTION    = 13.76559948
ECCENTRICITY   = .0021378
INCLINATION    = 100.0435
RA_OF_ASC_NODE = 288.5591
ARG_OF_PERICENTER = 10.9986
MEAN_ANOMALY   = 349.1626

EPHEMERIS_TYPE = 0
CLASSIFICATION_TYPE = U
NORAD_CAT_ID   = 81893
ELEMENT_SET_NO = 999
REV_AT_EPOCH   = 59866
BSTAR          = .13256E-2
MEAN_MOTION_DOT = .1252E-4
MEAN_MOTION_DDOT = 0

CCSDS_OMM_VERS = 2.0
CREATION_DATE  = 
ORIGINATOR     = 

OBJECT_NAME    = UNKNOWN
OBJECT_ID      = 
CENTER_NAME    = EARTH
REF_FRAME      = TEME
TIME_SYSTEM    = UTC
MEAN_ELEMENT_THEORY = SGP/SGP4

EPOCH          = 2025-11-05T17:46:06.031776
MEAN_MOTION    = 13.20028712
ECCENTRICITY   = .0177477
INCLINATION    = 102.4167
RA_OF_ASC_NODE = 44.8861
ARG_OF_PERICENTER = 290.1821
MEAN_ANOMALY   = 68.0277

EPHEMERIS_TYPE = 0
CLASSIFICATION_TYPE = U
NORAD_CAT_ID   = 81899
ELEMENT_SET_NO = 999
REV_AT_EPOCH   = 57410
BSTAR          = .42963E-2
MEAN_MOTION_DOT = .1818E-4
MEAN_MOTION_DDOT = 0

CCSDS_OMM_VERS = 2.0
CREATION_DATE  = 
ORIGINATOR     = 

OBJECT_NAME    = UNKNOWN
OBJECT_ID      = 
CENTER_NAME    = EARTH
REF_FRAME      = TEME
TIME_SYSTEM    = UTC
MEAN_ELEMENT_THEORY = SGP/SGP4

EPOCH          = 2025-10-26T08:05:56.671008
MEAN_MOTION    = 13.14903195
ECCENTRICITY   = .0849516
INCLINATION    = 65.7062
RA_OF_ASC_NODE = 160.7212
ARG_OF_PERICENTER = 134.9826
MEAN_ANOMALY   = 232.3358

EPHEMERIS_TYPE = 0
CLASSIFICATION_TYPE = U
NORAD_CAT_ID   = 81921
ELEMENT_SET_NO = 999
REV_AT_EPOCH   = 1955
BSTAR          = .54748E-3
MEAN_MOTION_DOT = .1301E-4
MEAN_MOTION_DDOT = 0

CCSDS_OMM_VERS = 2.0
CREATION_DATE  = 
ORIGINATOR     = 

OBJECT_NAME    = UNKNOWN
OBJECT_ID      = 
CENTER_NAME    = EARTH
REF_FRAME      = TEME
TIME_SYSTEM    = UTC
MEAN_ELEMENT_THEORY = SGP/SGP4

EPOCH          = 2025-11-06T18:23:40.994016
MEAN_MOTION    = 12.42560794
ECCENTRICITY   = .0669756
INCLINATION    = 66.4186
RA_OF_ASC_NODE = 221.8344
ARG_OF_PERICENTER = 8.6539
MEAN_ANOMALY   = 20.0083

EPHEMERIS_TYPE = 0
CLASSIFICATION_TYPE = U
NORAD_CAT_ID   = 81946
ELEMENT_SET_NO = 999
REV_AT_EPOCH   = 54341
BSTAR          = .77048E-3
MEAN_MOTION_DOT = .181E-5
MEAN_MOTION_DDOT = 0

CCSDS_OMM_VERS = 2.0
CREATION_DATE  = 
ORIGINATOR     = 

OBJECT_NAME    = UNKNOWN
OBJECT_ID      = 
CENTER_NAME    = EARTH
REF_FRAME      = TEME
TIME_SYSTEM    = UTC
MEAN_ELEMENT_THEORY = SGP/SGP4

EPOCH          = 2025-11-03T04:23:52.444896
MEAN_MOTION    = 14.52105227
ECCENTRICITY   = .0382374
INCLINATION    = 66.0739
RA_OF_ASC_NODE = 278.4867
ARG_OF_PERICENTER = 167.3884
MEAN_ANOMALY   = 193.7131

EPHEMERIS_TYPE = 0
CLASSIFICATION_TYPE = U
NORAD_CAT_ID   = 81947
ELEMENT_SET_NO = 999
REV_AT_EPOCH   = 62527
BSTAR          = .41018E-3
MEAN_MOTION_DOT = .4264E-4
MEAN_MOTION_DDOT = 0

CCSDS_OMM_VERS = 2.0
CREATION_DATE  = 
ORIGINATOR     = 

OBJECT_NAME    = UNKNOWN
OBJECT_ID      = 
CENTER_NAME    = EARTH
REF_FRAME      = TEME
TIME_SYSTEM    = UTC
MEAN_ELEMENT_THEORY = SGP/SGP4

EPOCH          = 2025-11-08T11:52:28.270560
MEAN_MOTION    = 13.95762541
ECCENTRICITY   = .0029409
INCLINATION    = 66.5856
RA_OF_ASC_NODE = 343.8275
ARG_OF_PERICENTER = 115.3674
MEAN_ANOMALY   = 245.0456

EPHEMERIS_TYPE = 0
CLASSIFICATION_TYPE = U
NORAD_CAT_ID   = 81964
ELEMENT_SET_NO = 999
REV_AT_EPOCH   = 60926
BSTAR          = .29628E-3
MEAN_MOTION_DOT = .327E-5
MEAN_MOTION_DDOT = 0

CCSDS_OMM_VERS = 2.0
CREATION_DATE  = 
ORIGINATOR     = 

OBJECT_NAME    = UNKNOWN
OBJECT_ID      = 
CENTER_NAME    = EARTH
REF_FRAME      = TEME
TIME_SYSTEM    = UTC
MEAN_ELEMENT_THEORY = SGP/SGP4

EPOCH          = 2025-11-08T13:33:21.401856
MEAN_MOTION    = 15.09979744
ECCENTRICITY   = .000367
INCLINATION    = 86.6862
RA_OF_ASC_NODE = 168.2484
ARG_OF_PERICENTER = 334.9164
MEAN_ANOMALY   = 25.1895

EPHEMERIS_TYPE = 0
CLASSIFICATION_TYPE = U
NORAD_CAT_ID   = 81969
ELEMENT_SET_NO = 999
REV_AT_EPOCH   = 43501
BSTAR          = .95767E-3
MEAN_MOTION_DOT = .1559E-3
MEAN_MOTION_DDOT = 0

CCSDS_OMM_VERS = 2.0
CREATION_DATE  = 
ORIGINATOR     = 

OBJECT_NAME    = UNKNOWN
OBJECT_ID      = 
CENTER_NAME    = EARTH
REF_FRAME      = TEME
TIME_SYSTEM    = UTC
MEAN_ELEMENT_THEORY = SGP/SGP4

EPOCH          = 2025-11-06T08:58:03.784224
MEAN_MOTION    = 14.03195864
ECCENTRICITY   = .0520771
INCLINATION    = 65.7468
RA_OF_ASC_NODE = 219.1071
ARG_OF_PERICENTER = 314.9067
MEAN_ANOMALY   = 41.0828

EPHEMERIS_TYPE = 0
CLASSIFICATION_TYPE = U
NORAD_CAT_ID   = 81995
ELEMENT_SET_NO = 999
REV_AT_EPOCH   = 59912
BSTAR          = .23554E-2
MEAN_MOTION_DOT = .12482E-3
MEAN_MOTION_DDOT = 0

CCSDS_OMM_VERS = 2.0
CREATION_DATE  = 
ORIGINATOR     = 

OBJECT_NAME    = UNKNOWN
OBJECT_ID      = 
CENTER_NAME    = EARTH
REF_FRAME      = TEME
TIME_SYSTEM    = UTC
MEAN_ELEMENT_THEORY = SGP/SGP4

EPOCH          = 2025-11-07T20:41:45.650688
MEAN_MOTION    = 14.32174848
ECCENTRICITY   = .0232745
INCLINATION    = 97.9271
RA_OF_ASC_NODE = 103.4929
ARG_OF_PERICENTER = 188.1841
MEAN_ANOMALY   = 171.5521

EPHEMERIS_TYPE = 0
CLASSIFICATION_TYPE = U
NORAD_CAT_ID   = 82043
ELEMENT_SET_NO = 999
REV_AT_EPOCH   = 56885
BSTAR          = .2016E-2
MEAN_MOTION_DOT = .7288E-4
MEAN_MOTION_DDOT = 0

CCSDS_OMM_VERS = 2.0
CREATION_DATE  = 
ORIGINATOR     = 

OBJECT_NAME    = UNKNOWN
OBJECT_ID      = 
CENTER_NAME    = EARTH
REF_FRAME      = TEME
TIME_SYSTEM    = UTC
MEAN_ELEMENT_THEORY = SGP/SGP4

EPOCH          = 2025-11-06T00:48:42.061824
MEAN_MOTION    = 14.35293581
ECCENTRICITY   = .0091825
INCLINATION    = 98.7501
RA_OF_ASC_NODE = 35.0029
ARG_OF_PERICENTER = 8.7222
MEAN_ANOMALY   = 351.5532

EPHEMERIS_TYPE = 0
CLASSIFICATION_TYPE = U
NORAD_CAT_ID   = 82051
ELEMENT_SET_NO = 999
REV_AT_EPOCH   = 56714
BSTAR          = .19711E-2
MEAN_MOTION_DOT = .5881E-4
MEAN_MOTION_DDOT = 0

CCSDS_OMM_VERS = 2.0
CREATION_DATE  = 
ORIGINATOR     = 

OBJECT_NAME    = UNKNOWN
OBJECT_ID      = 
CENTER_NAME    = EARTH
REF_FRAME      = TEME
TIME_SYSTEM    = UTC
MEAN_ELEMENT_THEORY = SGP/SGP4

EPOCH          = 2025-11-07T11:48:09.909504
MEAN_MOTION    = 14.38581770
ECCENTRICITY   = .0208567
INCLINATION    = 97.7558
RA_OF_ASC_NODE = 30.9629
ARG_OF_PERICENTER = 35.6432
MEAN_ANOMALY   = 325.8482

EPHEMERIS_TYPE = 0
CLASSIFICATION_TYPE = U
NORAD_CAT_ID   = 82073
ELEMENT_SET_NO = 999
REV_AT_EPOCH   = 57005
BSTAR          = .87907E-3
MEAN_MOTION_DOT = .3425E-4
MEAN_MOTION_DDOT = 0

